[{"OBJECT_NAME":"STARLINK-6263","OBJECT_ID":"2023-065AY","EPOCH":"2026-03-09T22:00:01.999584","MEAN_MOTION":15.14287006,"ECCENTRICITY":0.00010273,"INCLINATION":43.0011,"RA_OF_ASC_NODE":221.3286,"ARG_OF_PERICENTER":289.7985,"MEAN_ANOMALY":235.0267,"EPHEMERIS_TYPE":0,"CLASSIFICATION_TYPE":"U","NORAD_CAT_ID":56549,"ELEMENT_SET_NO":999,"REV_AT_EPOCH":572,"BSTAR":0.0067881777,"MEAN_MOTION_DOT":0.00128532,"MEAN_MOTION_DDOT":0},{"OBJECT_NAME":"FALCON 9 DEB","OBJECT_ID":"2021-041BK","EPOCH":"2026-03-09T13:04:15.781440","MEAN_MOTION":15.14721468,"ECCENTRICITY":0.00108412,"INCLINATION":53.0211,"RA_OF_ASC_NODE":167.2269,"ARG_OF_PERICENTER":177.7272,"MEAN_ANOMALY":182.3771,"EPHEMERIS_TYPE":0,"CLASSIFICATION_TYPE":"U","NORAD_CAT_ID":48610,"ELEMENT_SET_NO":999,"REV_AT_EPOCH":26460,"BSTAR":0.00039810006,"MEAN_MOTION_DOT":7.171e-5,"MEAN_MOTION_DDOT":0}]
